KUIPER-00061            
1 64521U 25134X   25230.81354656  .00015670  00000+0  44671-3 0  9996
2 64521  51.8740  59.2030 0005710 311.5045  48.5450 15.36230171  9897
KUIPER-00062            
1 64522U 25134Y   25230.91668981  .00035280  00000+0  17453-2 0  9993
2 64522  51.8828  60.4785 0008260 321.1762 140.5012 15.17460848  9434
KUIPER-00063            
1 64523U 25134Z   25230.91668981  .00035999  00000+0  16448-2 0  9994
2 64523  51.8787  59.6677 0005464 261.1524 200.9198 15.20223175  9442
KUIPER-00064            
1 64524U 25134AA  25230.66671296 -.00023364  00000+0 -91691-3 0  9999
2 64524  51.8825  60.2747 0002509  22.8613  99.4341 15.24849995  5704
KUIPER-00065            
1 64525U 25134AB  25230.90288024  .00010956  00000+0  59704-3 0  9990
2 64525  51.8845  61.1302 0008211 324.6397  35.4035 15.14846146  9878
KUIPER-00066            
1 64526U 25134AC  25230.91668981  .00039711  00000+0  16434-2 0  9998
2 64526  51.8850  59.1111 0003960 310.0065  62.6472 15.23556093  9457
KUIPER-00069            
1 64816U 25151A   25230.90829521  .00040091  00000+0  11225-2 0  9993
2 64816  51.8786 125.3413 0005099 255.6813 104.3607 15.36230578  6348
KUIPER-00070            
1 64817U 25151B   25230.91668981 -.00014600  00000+0 -68981-3 0  9997
2 64817  51.8897 127.0615 0006893 285.6527   5.8143 15.18221630  5127
